line1,line2,validFromUtcTime
1 00000U 00000E   26001.00000000  .00000000  00000-0  27772-4 0    01,2 00000  88.8546  90.3331 0010056 269.8932 285.1085 13.55299141    00,2026-01-01T00:00:00Z
1 00000U 00000E   26002.00000000  .00000000  00000-0  27772-4 0    02,2 00000  88.8546  90.2166 0010056 266.9835 124.1839 13.55299179    05,2026-01-02T00:00:00Z
